Type,Name,Address,District,,Type,District
Bus Interchange, AMK Bus Interchange,"53 Ang Mo Kio Avenue 3, S(569933)",Central,,Bus Interchange,Central
Bus Interchange, Ang Mo Kio Bus Depot,"Ang Mo Kio Street 52, S(569140)",Central,,Club,North East
Bus Interchange, Bishan Bus Interchange,"514 Bishan Street 13, S(570514)",Central,,Coffeeshop,North West
Bus Interchange, Harbourfront Bus Terminal,"4 Seah Im Road, S(099115)",Central,,Foodcourt,South East
Bus Interchange, Kampong Bahru Bus Terminal,"11A Spooner Road, S(168795)",Central,,Government Office,South West
Bus Interchange, Kent Ridge Bus Terminal,"37B, Clementi Road, S(884005)",Central,,Market & Food Centre,
Bus Interchange, Queens Street Bus Terminal,"Queens Street Bus Terminal, S(884001)",Central,,MRT Station,
Bus Interchange, Shenton Way Bus Terminal,"31 Shenton Way, S(079121)",Central,,Park,
Bus Interchange, St. Michael's Bus Terminal,"10 Whampoa Road, S(327691)",Central,,Pier,
Bus Interchange, Yio Chu Kang Bus Interchange,"Ang Mo Kio Avenue 8, Singapore S(088401)",Central,,Place of worship,
Club, Seletar Country Club,"101 Seletar Club Road, S(798273)",Central,,Private Office,
Club, Seletar Country Club (Ballroom),"101 Seletar Club Road, Singapore (798273)",Central,,Restaurant,
Coffeeshop, Kopitiam @ 437 Fernvale Road,"437 Fervale Road, #01-01, S(790437)",Central,,Shopping Centre,
Foodcourt, NTUC Foodfare Court@Clifford Centre,"Clifford Centre, 24 Raffles Place, S(048621)",Central,,Tourist Attraction,
Government Office, Maritime and Port Authority of Singapore,"460 Alexandra Road, #18-00, S(119963)",Central,,Community Centre,
Government Office, PSA Tanjong Pagar Complex,"7B Keppel Road, #19 - #21, S(089054)",Central,,Food Court,
Government Office, PSA Vista,"20 Harbour Drive, #08-00, S(117612)",Central,,Dormitory,
Government Office, The URA Centre,"45 Maxwell Road, S(069118)",Central,,Industrial Complex,
Market & Food Centre, 112 Bukit Merah Market & Food Centre,"Blk 112 Jalan Bukit Merah, S(160112)",Central,,,
Market & Food Centre," 210, Toa Payoh Lorong 8 Market & Hawker Centre","210 Lorong 8 Toa Payoh, S(310210)",Central,,,
Market & Food Centre, ABC Brickworks Market & Food Centre,"Blk 6 Jalan Bukit Merah, S(150006)",Central,,,
Market & Food Centre, Adam Road Food Centre,"2 Adam Road, S(289876)",Central,,,
Market & Food Centre, Albert Centre Market & Food Centre,"Blk 270 Queen Street, S(180270)",Central,,,
Market & Food Centre, Alexandra Village Food Centre,"Blk 120 Bukit Merah Lane, S(150120)",Central,,,
Market & Food Centre, Amoy Street Food Centre,"National Development Building (Annex B) Telok Ayer Street, S(069111)",Central,,,
Market & Food Centre, Bendemeer Market & Food Centre,"Blk 29 Bendemeer Road, S(330029)",Central,,,
Market & Food Centre, Beo Crescent Market & Food Centre,"38A Beo Crescent, S(169982)",Central,,,
Market & Food Centre, Berseh Food Centre,"166 Jalan Besar, S(208877)",Central,,,
Market & Food Centre, Blk 1 Jalan Kukoh Hawker Centre,"1 Jalan Kukoh, S(161001)",Central,,,
Market & Food Centre, Blk 69 Geylang Bahru Market & Food Centre,"Blk 69 Geyalng Bahru, S(330069)",Central,,,
Market & Food Centre, Bukit Merah Central Food Centre,"Blk 163 Jalan Bukit Merah, S(150163)",Central,,,
Market & Food Centre, Bukit Timah Market & Food Centre ,"51 Upper Bukit Timah Road, S(588215)",Central,,,
Market & Food Centre, Chinatown Market,"335 Smith Street, S(050335)",Central,,,
Market & Food Centre, Commonwealth Crescent Market,"31 Commonwealth Crescent, S(149644)",Central,,,
Market & Food Centre, Golden Mile Food Centre,"505 Beach Road, S(199583)",Central,,,
Market & Food Centre, Havelock Road Food Centre,"Blk 22A, Havelock Road, S(161022)",Central,,,
Market & Food Centre, Holland Drive Market & Food Centre,"Blk 44 Holland Drive, S(270044)",Central,,,
Market & Food Centre, Hong Lim Market & Food Centre,"Blk 531A Upper Cross Street, S(510531)",Central,,,
Market & Food Centre, Kallang Estate Market & Food Centre,"17 Old Airport Road, S(397972)",Central,,,
Market & Food Centre, Margaret Drive Hawker Centre,"38A Margaret Drive, S(142038)",Central,,,
Market & Food Centre, Market Street Hawker Centre,"50, Market Street, S(048940)",Central,,,
Market & Food Centre, Maxwell Food Centre,"1 Kadayanallur Street, S(069184)",Central,,,
Market & Food Centre, Mei Ling Market & Food Centre,"Blk 159 Mei Chin Road, S(140159)",Central,,,
Market & Food Centre, Newton Food Centre,"500 Clemenceau Ave North, S(229495)",Central,,,
Market & Food Centre, North Bridge Road Market & Food Centre,"861 North Bridge Road, S(198783)",Central,,,
Market & Food Centre, People's Park Food Centre,"32 New Bridge Road, S(050032)",Central,,,
Market & Food Centre, Sembawang Hill Food Centre,"590 Upper Thomson Road, S(574419)",Central,,,
Market & Food Centre, Sims Vista Market & Food Centre,"Blk 49 Sims Place, S(380049)",Central,,,
Market & Food Centre, Tanglin Halt Market,"48A, Tanglin Halt Road, S(148813)",Central,,,
Market & Food Centre, Tekka Centre Zhu Jiao Market,"Blk 665 Buffalo Road, S(210665)",Central,,,
Market & Food Centre, Tiong Bahru Market,"30 Seng Poh Road, S(168898)",Central,,,
Market & Food Centre, Upper Boon Keng Market & Food Centre,"Blk 17, Upper Boon Keng Road, S(380017)",Central,,,
Market & Food Centre, Whampoa Drive Makan Place@Blk 90,"Blk 90 Whampoa Drive, S(320090)",Central,,,
Market & Food Centre, Whampoa Drive Makan Place@Blk 92,"Blk 92 Whampoa Drive, S(320092)",Central,,,
Market & Food Centre, Zion Riverside Food Centre,"70 Zion Road, S(247792)",Central,,,
MRT Station, Ang Mo Kio MRT station,"2450 Ang Mo Kio Avenue 8, S(569811)",Central,,,
MRT Station, Bayfront MRT Station,"11 Bayfront Avenue, S(018957)",Central,,,
MRT Station, Bencoolen MRT Station (DT23),"31, Bencoolen Street, S(189658)",Central,,,
MRT Station, Bendemeer MRT Station (DT23),"11 Kallang Bahru, S(339356)",Central,,,
MRT Station, Bishan MRT station,"200 Bishan Road, S(579827)",Central,,,
MRT Station, Boon Keng MRT Station (NE9),"900 Serangoon Road, S(328260)",Central,,,
MRT Station, Botanic Garden (DT9),"100 Cluny Park, S(257494)",Central,,,
MRT Station, Botanic Gardens MRT station,"701, Telok Blangah Road, S(109029)",Central,,,
MRT Station, Braddell MRT Station,"377 Lorong 1, Toa Payoh, S(319756)",Central,,,
MRT Station, Bras Basah MRT Station,"65 Bras Basah Road, S(189561)",Central,,,
MRT Station, Bright Hill MRT Station (TE7),"100 Sin Ming Avenue, S(575737)",Central,,,
MRT Station, Bugis MRT Station (DT14),"220 Voctoria Street, S(188022)",Central,,,
MRT Station, Caldecott MRT Station (TE9),"38 Toa Payoh Rise, S(298113)",Central,,,
MRT Station, Chinatown MRT Station (DT19),"91 Upper Cross Street, S(058362)",Central,,,
MRT Station, Chinatown MRT Station (NE4),"151 New Bridge Road, (059443)",Central,,,
MRT Station, City Hall MRT Station,"150 North Bridge Road, S(179100) EW13",Central,,,
MRT Station, Clark Quay MRT Station (NE5),"10 Outram Road, S(169037)",Central,,,
MRT Station, Commonwealth MRT Station (EW20),"375 Commonwealth Avenue, S(149735)",Central,,,
MRT Station, Dhoby Ghaut MRT Station,"11 Orchard Road, S(238826) NS24",Central,,,
MRT Station, Dhoby Ghaut MRT Station Circle Line,"11 Orchard Road, S(238826)",Central,,,
MRT Station, Downtown MRT Station (DT17),"15 Central Boulevard, S(018969)",Central,,,
MRT Station,Esplanade MRT Station,"90 Bras Basah Road, S(189562)",Central,,,
MRT Station, Farrer Park MRT Station (NE8),"250 Race Course Road, S(218703)",Central,,,
MRT Station, Farrer Road MRT station,"119, Pasir Panjang Road, S(117424)",Central,,,
MRT Station, Fort Canning MRT Station (DT20),"170 River Valley Road, S(179038)",Central,,,
MRT Station, Garden By The Bay MRT Station (TEL22),"11 Marina Mall, S(019396)",Central,,,
MRT Station, Geylang Bahru MRT Station (DT24),"541 Kallang Bahru, S(339355)",Central,,,
MRT Station, Great World Station (TEL15),"351 River Valley Road, S(238384)",Central,,,
MRT Station, HarbourFront MRT Station (NE1),"81 Telok Blangah Road, S(098867)",Central,,,
MRT Station, Havelock MRT Station (TEL16),"110 Zion Road, S(168604)",Central,,,
MRT Station, Holland Village MRT station,"262, Pasir Panjang Road, S(118628)",Central,,,
MRT Station, Jalan Besar MRT Station (DT22),"35B Jalan Besar, S(208800)",Central,,,
MRT Station," Jalan Besar MRT Station, B1 (DT22)","35B Jalan Besar, S(208800)",Central,,,
MRT Station, Kallang MRT Station (EW10),"5 Sims Avenue, S(387405)",Central,,,
MRT Station, Lentor MRT Station (TE5),"1 Lentor Drive, S(789361)",Central,,,
MRT Station, Little India MRT Station (DT12),"60 Bukit Timah Road, S(229900)",Central,,,
MRT Station, Little India MRT Station (NE7),"60 Bukit Timah Road, S(229900)",Central,,,
MRT Station, Marina Bay MRT Station,"21 Marina Station Road, S(018990)",Central,,,
MRT Station, Marina Bay MRT Station (TEL20),"25 Park Street, S(018929)",Central,,,
MRT Station, Marina South Pier station,"31 Marina Coastal Drive, S(018988)",Central,,,
MRT Station, Marymount Station ,"60 Marymount Road, S(573993)",Central,,,
MRT Station, Maxwell MRT Station (TEL18),"321 South Bridge Road, S(058841",Central,,,
MRT Station, Mayflower MRT Station (TE6),"91 Ang Mo Kio Avenue 4, S(569900)",Central,,,
MRT Station, Napier Road MRT Station (TEL12),"2 Napier Road, S(258511)",Central,,,
MRT Station, Newton MRT station,"49 Scotts Road, S(228234)",Central,,,
MRT Station, Newton MRT Station (DT11),"235 Bukit Timah Road, S(229901)",Central,,,
MRT Station, Nicoll Highway MRT Station,"20 Republic Avenue, S(038970)",Central,,,
MRT Station, Orchard Boulevard MRT Station (TEL13),"20 Orchard Boulevard, S(248654)",Central,,,
MRT Station, Orchard MRT Station,"437 Orchard Road, S(238878)",Central,,,
MRT Station, Orchard MRT Station (TEL14),"301 Orchard Boulevard, S(237974)",Central,,,
MRT Station, Outram MRT Station,"10 Outram Road, S(169037)",Central,,,
MRT Station, Outram MRT Station (NE3),10 Eu Tong Sen Street S(059815),Central,,,
MRT Station, Outram Park MRT Station (TEL17),"13 Outram Road, S(169080)",Central,,,
MRT Station, Potong Pasir MRT Station (NE10),55 Upper Serangoon Rd. S(347694),Central,,,
MRT Station, Promenade MRT Station,"2 Tamasek Avenue, S(039193)",Central,,,
MRT Station, Queenstown MRT Station (EW19),"301 Commonwealth Avenue, S(149729)",Central,,,
MRT Station, Raffles Place MRT Station,"5 Raffles Place, S(048618)",Central,,,
MRT Station, Redhill MRT Station (EW18),"920 Tiong Bahru Road, S(158792)",Central,,,
MRT Station, Rochor MRT Station (DT13),"11 Rochore Canal Road, S(188505)",Central,,,
MRT Station, Shenton Way MRT Station (TEL19),"2 Park Street, S(018928)",Central,,,
MRT Station, Steven Road MRT Station (DT10),"92 Steven Road, S(257877)",Central,,,
MRT Station, Steven Road MRT Station (TEL11),"92 Steven Road, S(257877)",Central,,,
MRT Station, Tanjong Pagar MRT Station,"120 Maxwell Road, S(069119)",Central,,,
MRT Station, Telok Ayer MRT Station (DT18),"7 Cross Street, S(048416)",Central,,,
MRT Station, Upper Thomson MRT Station (TE8),"1 Jalan Keli, S(577937)",Central,,,
MRT Station, Woodleigh MRT Station (NE11),"400 Upper Serangoon Road, S(347695)",Central,,,
MRT Station, Yio Chu Kang MRT Station (NS15),"3000 Ang Mo Kio Avenue 8, S(569813)",Central,,,
Park, The Oval Seletar Aerospace Park,"3 Park Lane, S(798387)",Central,,,
Pier, Marina South Pier,"31 Marina Coastal Drive, S(018988)",Central,,,
Place of worship, St.George's Church,"44 Minden Road, S(248816)",Central,,,
Private Office, Lum Chang Building,"14, Kung Chong Road, S(159150)",Central,,,
Private Office, Wee Hur Construction Pte Ltd,"39 Kim Keat Road, Wee Hur Building, S(328814)",Central,,,
Restaurant,MTR 1924 Indian Restaurant,"438 Serangoon Road, S(218133)",Central,,,
Shopping Centre, Buangkok Square Mall,"991 Buangkok Link, Buangkok Square Mall, S(530991)",Central,,,
Shopping Centre, City Square Mall,"180 Kitchener Road, City Square Mall, S(208539)",Central,,,
Shopping Centre, Dawson Place Shopping Centre,"57 Dawson Road, S(142057)",Central,,,
Shopping Centre, New Bridge Centre,"336, Smith Street, S(050336)",Central,,,
Shopping Centre, Palais Renaissance,"390 Orchard Road, S(238871)",Central,,,
Shopping Centre, Quayside Isle | Sentosa Island,"31 Ocean Way, S(098375)",Central,,,
Shopping Centre, Raffles City Shopping Centre,"252 North Bridge Road, S(179103)",Central,,,
Shopping Centre, Robertson Walk,"11, Unity Street, #02-20A, S(237995)",Central,,,
Shopping Centre, The Central,"6 Eu Tong Sen Street, S(059817)",Central,,,
Shopping Centre, The Shoppes at Marina Bay Sands,"2 Bayfront Avenue, S(018972)",Central,,,
Shopping Centre, Tiong Bahru Plaza,"302 Tiong Bahru Road, S(168732)",Central,,,
Shopping Centre, Valley Point Mall,"491 River Valley Road, S(248371)",Central,,,
Tourist Attraction, ArBora Cafe,"109 Mount Faber Road, Level 2, S(099230)",Central,,,
Tourist Attraction, Merlion Park@Fullerton ,"1 Fullerton Road, S(049178)",Central,,,
Tourist Attraction, Mount Faber Peak,"109 Mount Faber Road, Level 1, S(099230)",Central,,,
Tourist Attraction, Sentosa Beach Station ,"33 Allanbroke Road, Sentosa, S(099981)",Central,,,
Tourist Attraction, Sentosa Boardwalk,Sentosa Boardwalk,Central,,,
Tourist Attraction, Sentosa Imbiah Lookout,"Imbiah Lookout, Sentosa, S(099538)",Central,,,
Tourist Attraction, Sentosa Imbiah Station,"Imbiah Express Station, Sentosa, S(099981)",Central,,,
Tourist Attraction, Sentosa Palawan Beach (East),"Palawan Beach Walk, S(098521)",Central,,,
Tourist Attraction, Sentosa Palawan Beach (West),"Palawan Beach Walk, S(098038)",Central,,,
Tourist Attraction, Sentosa Palawan Kidz City ,"31 Beach View, Palawan Kidz City S(098008)",Central,,,
Tourist Attraction, Sentosa Silosa Beach (East),"Siloso Beach Walk, S(098997)",Central,,,
Tourist Attraction, Sentosa Siloso (West),Sentosa Siliso East,Central,,,
Tourist Attraction, Sentosa Wings of Time,"Wings of Time, Sentosa, S(099538)",Central,,,
Tourist Attraction, The Fullerton Water Boat House,"1 Fullerton Road, S(049213)",Central,,,
Bus Interchange, Compassvale Bus Interchange,"51A, Compassvale Road, S(544760)",North East,,,
Bus Interchange, Hougang Bus Interchanage,"840 Hougang Central, S(53877)",North East,,,
Bus Interchange, Punggol Bus Interchange,"70A, Punggol Place, S(828865)",North East,,,
Bus Interchange, Sengkang Bus Interchange,"13 Sengkang Square, S(545077)",North East,,,
Bus Interchange, Tampines Bus Interchange,"512 Tampines Central 1, S(520512)",North East,,,
Bus Interchange, Tampines Concourse Bus Interchange ,"11 Tampines Concourse, S(529543)",North East,,,
Club, NTUC Club Downtown East,1 Pasir Ris Close S(519599),North East,,,
Club, Safra Punggol,"9 Sentul Crescent, S(828654)",North East,,,
Coffeeshop, Kopitiam @ 231 Sumang Lane,"231, Sumang Lane, S(820231)",North East,,,
Coffeeshop, Kopitiam @ 275D Compassvale Link,"275D Compassvale Link, #01-01, S(544275)",North East,,,
Coffeeshop, Kopitiam @ 639 Punggol Drive,"639 Punggol Drive, #01-07, S(820639)",North East,,,
Coffeeshop, Kopitiam @108 Punggol Field,"108 Punggol Field, #01-01, S(820108)",North East,,,
Coffeeshop, NTUC Foodfare @ 273C Punggol Place,"273C Punggol Place, #01-882, S(823273)",North East,,,
Market & Food Centre, Chomp Chomp Food Centre,"20 Kensington Park Road, S(557269)",North East,,,
Market & Food Centre, Hawker Centre @ Our Tampines Hub,"902 Tampines Avenue 4, S(520902)",North East,,,
Market & Food Centre, Pasir Ris Central Hawker Centre,"110 Pasir Ris Central, S(519641)",North East,,,
Market & Food Centre, Serangoon Garden Market,"49A Serangoon Garden Way, S(555945)",North East,,,
Market & Food Centre, Tampines Round Market & Food Centre ,"Blk 137 Tampines Street 11, S(521137)",North East,,,
MRT Station, Bedok Reservoir MRT Station (DT30),"371 Bedok North Avenue 3, S(469724)",North East,,,
MRT Station, Buangkok MRT Station (NE15),"10 Sengkang Central, S(545061)",North East,,,
MRT Station, Eunos MRT Station,"30 Eunos Crescent, S(409423)",North East,,,
MRT Station, Hougang MRT Station (NE14),"80 Hougang Central, S(538758)",North East,,,
MRT Station, Kaki Bukit MRT Station (DT28),"30 Kaki Bukit Avenue 1, S(415804)",North East,,,
MRT Station, Kembangan MRT Station,"55 Sims Avenue East, S(416551)",North East,,,
MRT Station, Kovan MRT Station (NE13),"900 Upper Serangoon Rd, S(534799)",North East,,,
MRT Station, Pasir Ris MRT Station,"10 Pasir Ris Central, S(519634)",North East,,,
MRT Station, Punggol MRT Station-NE17,"10 Punggol Central, S(828868)",North East,,,
MRT Station, Sengkang MRT Station (NE16),"5 Sengkang Square, S(545062)",North East,,,
MRT Station, Tampines East MRT Station (DT33),"20 Tampines Avenue 7, S(529623)",North East,,,
MRT Station, Tampines MRT Station,"20 Tampines Central, S(529538)",North East,,,
MRT Station, Tampines MRT Station (DT32),"20 Tampines Central, S(529538)",North East,,,
MRT Station, Tampines West MRT Station (DT31),"2 Tampines Avenue 4, S(529683)",North East,,,
MRT Station, Tanah Merah MRT Station,"920 New Upper Changi Road, (467356)",North East,,,
Place of worship, Al - Istighfar Mosque,"2 Pasir Ris Walk, S(518239)",North East,,,
Shopping Centre, Century Square,"2 Tampines Central 5, S(529509)",North East,,,
Shopping Centre, Elias Mall,"Blk 625, Level 1 & 2, Elias Road, S(510625)",North East,,,
Shopping Centre, Hougang Mall,"90 Hougang Avenue 10, Level B1 - 2, S(538766)",North East,,,
Shopping Centre, Hougang Mall,"90 Hougang Avenue 10, Level 3 - 5, S(538766)",North East,,,
Shopping Centre, Loyang Point Shopping Centre,"258/259 Pasir Ris Street 21, S(510258)",North East,,,
Shopping Centre, Pasir Ris West Plaza,"735, Pasir Ris Street 72, S(510735)",North East,,,
Shopping Centre, Rivervale Plaza,"118, Rivervale Plaza, S(540118)",North East,,,
Shopping Centre, Tampines Central Community Complex,"Blk 886A, Tampines Street 83, S(521866)",North East,,,
Shopping Centre, Tampines One,"10, Tampines Central 1, S(529536)",North East,,,
Shopping Centre, White Sands,"1 Pasir Ris Central Street 3, S(518457)",North East,,,
Bus Interchange, Bukit Panjang Intergrated Transport Hub,"15 Petir Road, S(678270)",North West,,,
Bus Interchange, Gali Batu Bus Terminal,"Gali Batu Terminal, 3 Jalan Gali Batu, S(678673)",North West,,,
Bus Interchange, Kranji Bus Depot,"209 Kranji Road, S(739484)",North West,,,
Bus Interchange, Sembawang Bus Interchange,"11A, Sembawang Vista, S(757527)",North West,,,
Bus Interchange, Woodlands Depot,"60 Woodlands Industrial Park E4, S(757705)",North West,,,
Bus Interchange, Woodlands Integrated Transport Hub,"30 Woodlands Avenue, S(738343)",North West,,,
Bus Interchange, Woodlands Temporary Bus Interchange,"3A Woodlands Square, S(727735)",North West,,,
Bus Interchange, Yishun Integrated Hub Bus Interchange,"20A Yishun Central, S(768830)",North West,,,
Coffeeshop, Kopitiam @ 504 Yishun Street 51,"504 Yishun Street 51, #01-01, S(760504)",North West,,,
Coffeeshop, Kopitiam @ 628 Senja Road,"628 Senja Road, #01-07, S(670628)",North West,,,
Coffeeshop, NTUC Foodfare @ 361 Sembawang Crescent,"361 Sembawang Crescent, #01-01, S(750361)",North West,,,
Community Centre, Bukit Canberra Indoor Sports Hall,"21 Canberra Link, S(756973)",North West,,,
Food Court, NTUC Foodfare KTPH,"90 Yishun Central, S(768828)",North West,,,
Market & Food Centre, Bukit Canberra Hawker Centre,"21 Canberra Link, S(756973)",North West,,,
Market & Food Centre, Bukit Panjang Hawker Centre,"259 Bukit Panjang Ring Road, S(671259)",North West,,,
Market & Food Centre, Chong Pang Market & Food Centre,"105 Yishun Ring Road, S(760105)",North West,,,
Market & Food Centre, Holland Village Market & Food Centre,"1 Lorong Mambong, S(277700)",North West,,,
Market & Food Centre, Senja Hawker Centre,"2 Senja Close, S(677632)",North West,,,
Market & Food Centre, Yishun Park Hawker Centre,"51 Yishun Avenue 11, S(768867)",North West,,,
MRT Station, Admiralty MRT Station,"70 Woodlands Avenue, S(738344)",North West,,,
MRT Station, Canberra MRT Station (NS12),"11, Canberra Link, S(756922)",North West,,,
MRT Station, Cashew MRT Station (DT2),"1 Cashew Road, S(679696)",North West,,,
MRT Station, Dover MRT Station (EW22),"200 Commonwealth Avenue West, S(138677)",North West,,,
MRT Station, Hillview MRT Station (DT3),"510 Upper Bukit Timah Road, S(678211)",North West,,,
MRT Station, King Albert MRT Station (DT6),"2 Blackmore Drive, S(599987)",North West,,,
MRT Station, Kranji MRT Station,"960 Woodlands Road, S(738702)",North West,,,
MRT Station, Marsiling MRT Station,"71 Woodlands Avenue 3, S(739044)",North West,,,
MRT Station, Sembawang MRT Station (NS11),"11 Canberra Road, S(759775)",North West,,,
MRT Station, Sixth Avenue MRT Station (DT7),"777 Bukit Timah Road, S(269784)",North West,,,
MRT Station, Springleaf MRT Station (TE4),"825 Upper Thomson Road, S(787140)",North West,,,
MRT Station, Tan Kah Kee MRT Station (DT8),"651 Bukit Timah Road, S(266268)",North West,,,
MRT Station, Woodlands MRT Station,"30 Woodlands Avenue, S(738343)",North West,,,
MRT Station, Woodlands North Station (TEL1),"20 Woodlands North Coast Road, S(737668)",North West,,,
MRT Station, Woodlands South Station (TEL3),"30 Woodlands Drive 17, S(737741)",North West,,,
MRT Station, Woodlands Station (TEL2),"11 Woodlands Square, S(737736)",North West,,,
MRT Station, Yew Tee MRT Station,"61 Choa Chu Kang Drive, S(689715)",North West,,,
MRT Station, Yishun MRT Station (NS13),"301 Yishun Avenue 2, S(769093)",North West,,,
Shopping Centre, 888 Plaza,"Blk 888, Woodlands Drive 50, S(731888)",North West,,,
Shopping Centre, Admiralty Place,"Blk 678 Woodlands Avenue 6, S(730678)",North West,,,
Shopping Centre, Fajar Shopping Centre,"445 Fajar Road, Level 1 & 2, S(670445)",North West,,,
Shopping Centre, Sembawang Mart,"Blk 511 Canberra Road, S(750511)",North West,,,
Shopping Centre, Vista Point,"Blk 548 Woodlands Drive 44, S(730548)",North West,,,
Shopping Centre,Woodlands Mart,"Blk 768 Woodlands Street 61, S(730768)",North West,,,
Bus Interchange, Bedok Bus Interchange,"12 BedokNorth Drive, S(465492)",South East,,,
Bus Interchange, Changi Business Park Bus Terminal,"55 Changi South Avenue 1, S(485997)",South East,,,
Bus Interchange, Eunos Bus Interchange,"409 Eunos Road 2, S(409388)",South East,,,
Bus Interchange, Serangoon Bus Interchange,"20 Serangoon Avenue 2, S(556138)",South East,,,
Bus Interchange, Upper East Coast Bus Terminal,"740 Upper East Coast Road, S(465549)",South East,,,
Coffeeshop, Kopitiam @ 248 Simei Street 3,"238 Simei Street 3, #01-136, S(520248)",South East,,,
Foodcourt, Kopitiam Corner,"152A Bedok South Road, S(461152)",South East,,,
Government Office, Heartbeat@Bedok,"11 Bedok North Stree 1, S(469662)",South East,,,
Market & Food Centre, Bedok Food Centre,"1 Bedok Road, S(469572)",South East,,,
Market & Food Centre, Bedok Interchange Hawker Centre,"208B, New Upper Changi Road, S(462208)",South East,,,
Market & Food Centre, Blk 16 Bedok South Road Market & Food Centre,"Blk 16, Bedok South Road, S(460016)",South East,,,
Market & Food Centre, Changi Village Hawker Centre,"2 Changi Village Road, S(500002)",South East,,,
Market & Food Centre, Dunman Food Centre,"271 Onan Road, S(424768)",South East,,,
Market & Food Centre, East Coast Lagoon Food Village,"1220 East Coast Parkway, S(468960)",South East,,,
Market & Food Centre, Geylang Serai Market,"1 Geylang Serai, S(402001)",South East,,,
MRT Station, Aljunied MRT Station (EW9),"81 Lorong 25 Geylang, S(388310)",South East,,,
MRT Station, Bartley MRT Station,"212 Upper Paya Lebar, S(534881)",South East,,,
MRT Station, Bedok MRT Station,"315 New Upper Changi Road, S(467347)",South East,,,
MRT Station, Bedok North MRT Station (DT29),"315 Upper Changi Road, S(467347)",South East,,,
MRT Station, Dakota MRT Station,"201 Airport Road, S(397973)",South East,,,
MRT Station, Expo MRT Station,"21 Upper Changi South Avenue 1, S(486065)",South East,,,
MRT Station, Lorong Chuan MRT Station,"150 Serangoon Avenue 3, S(554533)",South East,,,
MRT Station, Macpherson MRT Station (DT26),"10 Circuit Link, S(378956)",South East,,,
MRT Station, Macpherson MRT Station CC10,"171 Paya Lebar Rd, S(409048)",South East,,,
MRT Station, Mattar MRT Station (DT25),"60 Merpati Road, S(379314)",South East,,,
MRT Station, Mountbatten MRT Station,"301 Mountbatten Road, S(398006)",South East,,,
MRT Station, Paya Lebar MRT Station,"30 Paya Lebar Road, S(409006)",South East,,,
MRT Station, Paya Lebar MRT Station CC09,"30 Paya Lebar Road, S(409006)",South East,,,
MRT Station, Serangoon MRT Station (NE12),"600 Upper Serangoon Rd., S(534801)",South East,,,
MRT Station, Serangoon MRT Station CC13,"600 Upper Serangoon Rd, S(534801)",South East,,,
MRT Station, Simei MRT Station,"30 Simei Street 3, S(529888)",South East,,,
MRT Station, Stadium MRT Station,"3 Stadium Walk, S(397692)",South East,,,
MRT Station, Tai Seng MRT Station CC11,"33 Upper Paya Lebar Rd, S(534803)",South East,,,
MRT Station, Ubi MRT Station (DT27),"51 Ubi Avenue 2, S(408899)",South East,,,
MRT Station, Upper Changi MRT Station,"690 Upper Changi Road East, S(485990)",South East,,,
Private Office, Changi Business Park 15,"15 Changi Business Park Central 1, S(486057)",South East,,,
Private Office, Changi Business Park 7,"7 Changi Business Park Central 1, S(486072)",South East,,,
Private Office, Changi Business Park 9,"9 Changi Business Park Central 1, S(486048)",South East,,,
Private Office, Kah Engineering (1988) Pte Ltd,"96B Jalan Senang, S(418482)",South East,,,
Shopping Centre, Joo Chiat Complex,"1 Joo Chiat Road, S(420001)",South East,,,
Shopping Centre, PLQ Mall,"10 Paya Lebar Road, S(409057)",South East,,,
Bus Interchange, Boon Lay Bus Interchange,"87 Jurong West Central 3, S(648343)",South West,,,
Bus Interchange, Bukit  Batok Bus Interchange,"631 Bukit Batok Central, S(650631)",South West,,,
Bus Interchange, Choa Chu Kang Bus Interchange ,"301 Choa Chu Kang Central Avenue 3, S(689811)",South West,,,
Bus Interchange, Clementi Bus Interchange,"441 Commonwealth Avenue West, S(120441)",South West,,,
Bus Interchange, Joo Koon Bus Interchange,"55 Benoi Road, S(629907)",South West,,,
Bus Interchange, Jurong East Bus Interchange,"17A Jurong Gateway Road, S(608513)",South West,,,
Bus Interchange, Tuas Bus Terminal,"1 Tuas West Drive, S(638410)",South West,,,
Coffeeshop, Kopitiam @ 450 Clementi Avenue 3,"450 Clementi Avenue 3, #01-271, S(120450)",South West,,,
Coffeeshop, NTUC Foodfare Choa Chu Kang,"Blk 303, Choa Chu Kang Avenue 4, #01-723, S(680303)",South West,,,
Dormitory,Aspri-Westlite Construction Site,"5 Jalan Papan Road, S(619396)",South West,,,
Dormitory, Unison Construction Dormitory,"6 Tuas Basin Link, S(638760)",South West,,,
Foodcourt, Kopitiam,"1 Lower Kent Ridge Road, #05-01 One@Kent Ridge, S (119082)",South West,,,
Foodcourt, Kopitiam,"5 Lower Kent Ridge Rd, #01-01, S(119074)",South West,,,
Industrial Complex, CleanTech One,"CleanTech One, 1 Clean Tech Loop, S(637141)",South West,,,
Industrial Complex, CleanTech Two,"3 Cleantech Loop, S(637143)",South West,,,
Industrial Complex, JTC Surface Engineering Hub,"8 Buroh Street, S(627563)",South West,,,
Industrial Complex, Jurong Port Offshore Marine Centre,"101 Tuas South Avenue, S(637423)",South West,,,
Industrial Complex, LaunchPad @ JID,"2 Cleantech Loop, S(637144)",South West,,,
Industrial Complex, MedTech Hub,"2 Tukang Innovation Grove, S(618305)",South West,,,
Industrial Complex, SkyTech,"2 Bukit Batok Street 24, S(659480)",South West,,,
Market & Food Centre, Ayer Rajah Amenity Centre ,"69 Ayer Rajah Crescent, S(139961)",South West,,,
Market & Food Centre, Ayer Rajah Food Centre & Market,"Blk 502 West Coast Drive, S(120502)",South West,,,
Market & Food Centre, Boon Lay Market & Food Centre,"221A Boon Lay Place, S(641221)",South West,,,
Market & Food Centre, Jurong Port Road Food Centre ,"29A Jurong Port Road, S(619112)",South West,,,
Market & Food Centre, Pasir Panjang Food Centre,"121 Pasir Panjang Road, S(118543)",South West,,,
Market & Food Centre, Taman Jurong Market & Food Centre,"3 Yung Sheng Road, S(618499)",South West,,,
Market & Food Centre, Timbre + Ayer Rajah Crescent Hawker Centre,"73A Ayer Rajah Crescent, S(139957)",South West,,,
Market & Food Centre, Yuhua Village Market & Food Centre,"254 Jurong East Street 24, S(600254)",South West,,,
MRT Station, Beauty World MRT Station (DT5),"101 Upper Bukit Timah Road, S(588216)",South West,,,
MRT Station, Boon Lay MRT Station (EW27),"301 Boon Lay Way, S(649846)",South West,,,
MRT Station, Bukit Batok MRT Station (N2),"10 Bukit Batok Central, S(659958)",South West,,,
MRT Station, Bukit Gombak MRT Station (NS3),"802 Bukit Batok West Avenue 5, S(659083)",South West,,,
MRT Station, Bukit Panjang MRT Station (DT1),"950 Upper Bukit Timah Road, S(678213)",South West,,,
MRT Station, Buona Vista MRT station,"301, South Buona Vista Road, S(118177)",South West,,,
MRT Station, Buona Vista MRT Station (EW21),"100 Bouna Vista Road, S(139345)",South West,,,
MRT Station, Chinese Garden MRT Staton (EW25),"151 Boon Lay Way, S(609959)",South West,,,
MRT Station, Choa Chu Kang MRT Station (NS4),10 Choa Chu Kang Avenue 4 S(689810),South West,,,
MRT Station, Clementi MRT Station (EW23),"3150 Commonwealth Avenue West, S(129580)",South West,,,
MRT Station, Gul Circle Station,"7A Tuas Road, S(637288)",South West,,,
MRT Station, Haw Par Villa MRT station,"200, Holland Avenue, S(278995)",South West,,,
MRT Station, Joo Koon MRT Station (EW29),"91 Joo Koon Circle, S(6291116)",South West,,,
MRT Station, Jurong East MRT Station (EW24),"10 Jurong East Street 12, S(609690)",South West,,,
MRT Station, Kent Ridge MRT station,"100, North Buona Vista Road, S(139345)",South West,,,
MRT Station, Labrador Park MRT station,"100, Cluny Park Road, S(257494)",South West,,,
MRT Station, Lakeside MRT (EW26),"201 Boon Lay Way, S(649845)",South West,,,
MRT Station, One North MRT station,"9, Ayer Rajah Avenue, S(138647)",South West,,,
MRT Station, Pasir Panjang MRT station,"71, Farrer Road, S(268857)",South West,,,
MRT Station, Pioneer MRT Station (EW28),"31 Jurong West Street 63, S(648310)",South West,,,
MRT Station, Telok Blangah MRT station,"38, Toa Payoh Rise, S(298113)",South West,,,
MRT Station, Tuas Crescent MRT Station,"90 Pioneer Road, S(639608)",South West,,,
MRT Station, Tuas Link MRT Station,"20 Tuas West Drive, S(638418)",South West,,,
MRT Station, Tuas West MRT Station,"131, Pioneer Road, S(639609)",South West,,,
Park, Jurong Eco Garden ,"1 Cleantech Loop Singapore, S(637141)",South West,,,
Private Office, CKR Contract Services Pte Ltd,"56 Sungei Kadut Drive, S(729573)",South West,,,
Private Office, Samwoh Eco Green Building,"51 Kranji Crescent, S(728661)",South West,,,
Shopping Centre, Choa Chu Kang Centre,"309 Choa Chu Kang Avenue 4, S(680308)",South West,,,
Shopping Centre, Depot Height Shopping Centre ,"108 Depot Road, S(100108)",South West,,,
Shopping Centre, Gek Poh Shopping Centre,"Blk 762, Jurong West Street 75, S(640762)",South West,,,
Shopping Centre, Greenridge Shopping Centre,"524A Jelapang Road, S(671524)",South West,,,
Shopping Centre, Greenridge Shopping Centre,"524A Jelapang Road, S(671524)",South West,,,
Shopping Centre, Jurong Point Shopping Centre,"1 Jurong West Central 2, #03-07, Jurong Point Shopping Centre, S(648886)",South West,,,
Shopping Centre, Limbang Shopping Centre,"532 Choa Chu Kang Street 51, S(680532)",South West,,,
Shopping Centre, Pioneer Mall,"638 Jurong West Street 61, S(640638)",South West,,,
Shopping Centre, Sunshine Place,"475 Choa Chu Kang Avenue 3, S(680475)",South West,,,
Shopping Centre, Taman Jurong Shopping Centre,Blk 399 Yung Sheng Road (Near Party World/NTUC),South West,,,
Shopping Centre, Yew Tee Square,"624 Choa Chu Kang Street 62, S(680624)",South West,,,
